{"type": "FeatureCollection", "features": [ {"type": "Feature", "properties": {"norad_id": 66911, "name": "1998-067XX", "group": "stations", "lat": 3.043854165469779, "lon": -82.72602135472158, "alt_km": 407.6954185618861, "timestamp": "2025-12-21T07:34:33.334660+00:00", "meta": {"OBJECT_NAME": "1998-067XX", "OBJECT_ID": "1998-067XX", "EPOCH": "2025-12-20T15:22:41.136960", "MEAN_MOTION": 15.53054787, "ECCENTRICITY": 0.00038763, "INCLINATION": 51.6313, "RA_OF_ASC_NODE": 103.0498, "ARG_OF_PERICENTER": 258.0568, "MEAN_ANOMALY": 101.9988, "EPHEMERIS_TYPE": 0, "CLASSIFICATION_TYPE": "U", "NORAD_CAT_ID": 66911, "ELEMENT_SET_NO": 999, "REV_AT_EPOCH": 283, "BSTAR": 0.00081112736, "MEAN_MOTION_DOT": 0.00051512, "MEAN_MOTION_DDOT": 0}, "tle": {"line1": "1 66911U 98067XX  25354.64075390  .00051512  00000+0  81113-3 0  9996", "line2": "2 66911  51.6313 103.0498 0003876 258.0568 101.9988 15.53054787  2831"}}, "geometry": {"type": "Point", "coordinates": [-82.72602135472158, 3.043854165469779]}}, {"type": "Feature", "properties": {"norad_id": 66912, "name": "1998-067XY", "group": "stations", "lat": 41.86897016851292, "lon": -125.443585996709, "alt_km": 407.69311203716734, "timestamp": "2025-12-21T07:34:33.334671+00:00", "meta": {"OBJECT_NAME": "1998-067XY", "OBJECT_ID": "1998-067XY", "EPOCH": "2025-12-19T14:52:14.043072", "MEAN_MOTION": 15.51780846, "ECCENTRICITY": 0.0004012, "INCLINATION": 51.6307, "RA_OF_ASC_NODE": 108.231, "ARG_OF_PERICENTER": 260.881, "MEAN_ANOMALY": 99.1725, "EPHEMERIS_TYPE": 0, "CLASSIFICATION_TYPE": "U", "NORAD_CAT_ID": 66912, "ELEMENT_SET_NO": 999, "REV_AT_EPOCH": 267, "BSTAR": 0.00063264, "MEAN_MOTION_DOT": 0.00038197, "MEAN_MOTION_DDOT": 0}, "tle": {"line1": "1 66912U 98067XY  25353.61960698  .00038197  00000+0  63264-3 0  9998", "line2": "2 66912  51.6307 108.2310 0004012 260.8810  99.1725 15.51780846  2678"}}, "geometry": {"type": "Point", "coordinates": [-125.443585996709, 41.86897016851292]}}]}